GOES-16
1 41866U 16071A   25340.90532821 -.00000085  00000-0  00000-0 0  9998
2 41866   0.0643 106.5720 0003523 152.8562  37.7578  1.00271398 33175
FENGYUN-4A
1 41882U 16077A   25340.66524316 -.00000351  00000-0  00000-0 0  9991
2 41882   1.8332  82.4537 0005026 143.1616 213.3727  1.00276523 32990
FOX-1B (AO-91)
1 43017U 17073E   25340.87477298  .00017205  00000-0  81576-3 0  9994
2 43017  97.4944 207.2043 0159872 270.7789  87.5125 15.08672133436359
CANX-2
1 32790U 08021H   25340.91149959  .00007639  00000-0  56126-3 0  9991
2 32790  97.8438 312.4735 0010093 345.9415  14.1527 15.03686689955899
AIST-2 (RS-43)
1 39133U 13015D   25340.91954881  .00010272  00000-0  43187-3 0  9996
2 39133  64.8678 164.8085 0029088 256.8837 102.9045 15.23468345694582
NANOSATC-BR1
1 40024U 14033Q   25340.94926266  .00024254  00000-0  99168-3 0  9992
2 40024  98.0896 352.1484 0005470 118.0460 242.1329 15.24343192624622
QB50P1
1 40025U 14033R   25340.93734872  .00015664  00000-0  85768-3 0  9998
2 40025  98.0961 334.1649 0009920 152.9268 207.2481 15.14288974623890
QB50P2
1 40032U 14033Y   25340.92178735  .00012854  00000-0  75825-3 0  9996
2 40032  98.0633 321.4626 0009705 105.5287 254.7014 15.11662630623581
PERSEUS-M2
1 40037U 14033AD  25340.92201694  .00004261  00000-0  39821-3 0  9991
2 40037  97.9752 282.9387 0011071 210.4009 149.6570 14.94655621622050
PERSEUS-M1
1 40039U 14033AF  25340.77286223  .00004758  00000-0  44336-3 0  9995
2 40039  97.9457 277.1093 0010844 209.0486 151.0132 14.94710461621889
POLYITAN-1
1 40042U 14033AJ  25340.91056610  .00027938  00000-0  11075-2 0  9998
2 40042  98.1072 345.0009 0010368  95.3249 264.9171 15.25315735624201
TIGRISAT
1 40043U 14033AK  25340.90332757  .00004215  00000-0  50064-3 0  9992
2 40043  97.7561 130.7723 0049972 346.8369  13.1538 14.84080414617099
UKUBE-1
1 40074U 14037F   25340.88696549  .00016833  00000-0  10515-2 0  9994
2 40074  98.4142 319.6541 0003383  83.3417 276.8194 15.09551250619508
DEORBITSAIL
1 40719U 15032E   25340.85760212  .00015740  00000-0  12586-2 0  9998
2 40719  97.6139 196.4773 0010874 149.7353 210.4501 15.00249406562374
HORYU-IV
1 41340U 16012D   25340.37349146  .00075721  00000-0  13012-2 0  9994
2 41340  30.9953 353.6635 0006694 172.2657 187.8097 15.49767084540560
D-SAT
1 42794U 17036AF  25340.89427028  .00012433  00000-0  63213-3 0  9998
2 42794  97.5362 316.0410 0089337 106.7142 254.3918 15.13499761461735
CORVUS-BC2
1 42846U 17042X   25340.91909229  .00006464  00000-0  46266-3 0  9990
2 42846  97.3853 145.1987 0015129  54.3018 305.9615 15.04651157458130
CORVUS-BC1
1 42847U 17042Y   25340.94067128  .00007185  00000-0  51084-3 0  9992
2 42847  97.3879 145.8935 0012941  31.0158 329.1830 15.04893140458165
APRIZESAT-5 
1 37792U 11044E   25340.77039258  .00002652  00000-0  34596-3 0  9998
2 37792  98.2355 263.5578 0051302 262.2282  97.3102 14.80547771770317
APRIZESAT-6
1 37793U 11044F   25340.98790604  .00002010  00000-0  29211-3 0  9997
2 37793  98.2459 242.4920 0043150 342.4886  82.3881 14.76514004768787
APRIZESAT-7
1 39416U 13066A   25340.84946912  .00002583  00000-0  26435-3 0  9997
2 39416  97.7464 292.2242 0037503 127.3732 233.0912 14.90872151652560
APRIZESAT-8
1 39425U 13066K   25340.80904068  .00002658  00000-0  29669-3 0  9994
2 39425  97.7998 286.3126 0045853 197.1385 162.8285 14.87090076651074
BUGSAT-1 (TITA)
1 40014U 14033E   25340.90261269  .00010227  00000-0  57353-3 0  9997
2 40014  98.0571  57.4717 0030535 115.8114 244.6271 15.13185296626730
SAUDISAT-4
1 40016U 14033G   25340.89308132  .00001492  00000-0  20490-3 0  9994
2 40016  97.7296 129.0610 0044650 340.9998  18.9546 14.79153299617640
TABLETSAT-AURORA
1 40017U 14033H   25340.90875821  .00012888  00000-0  70318-3 0  9996
2 40017  98.0503  38.8227 0012867 148.0254 212.1760 15.14434338626073
APRIZESAT-9
1 40018U 14033J   25340.90142566  .00001513  00000-0  23023-3 0  9994
2 40018  97.8789 114.1845 0067876  98.4363 262.4547 14.73870847615230
APRIZESAT-10
1 40019U 14033K   25340.93238762  .00001649  00000-0  26662-3 0  9994
2 40019  97.9407 107.5407 0079532 166.8741 193.4561 14.70578498613995
AISAT
1 40054U 14034B   25340.76210143  .00019599  00000-0  14171-2 0  9992
2 40054  98.2518 234.6957 0011020 136.7594 223.4496 15.04037357618238
COSMOS-2407 [+]
1 28380U 04028A   25340.91442846  .00000115  00000-0  10163-3 0  9998
2 28380  82.9615 217.2054 0040479  70.6389 301.3845 13.76312679 73438
COSMOS-2414 [+]
1 28521U 05002A   25340.69165267  .00000126  00000-0  92077-4 0  9999
2 28521  82.9498 189.2332 0040531 156.6893 203.6120 13.87901824 57110
COSMOS-2463 [+]
1 36519U 10017A   25340.92860098  .00000089  00000-0  82093-4 0  9992
2 36519  82.9617  30.9827 0034956 304.7523 228.7937 13.71648343781575
NOAA-15
1 25338U 98030A   25340.93971884  .00000299  00000-0  14005-3 0  9997
2 25338  98.5224   1.6270 0010146 184.7891 175.3194 14.27067384433876
NOAA-18
1 28654U 05018A   25340.89598709  .00000285  00000-0  17419-3 0  9998
2 28654  98.8301  58.2315 0013778 341.3560  18.7106 14.13678531 59149
NOAA-19
1 33591U 09005A   25340.93174402  .00000143  00000-0  99849-4 0  9990
2 33591  98.9775  46.4646 0013330 210.6728 149.3666 14.13434356867329
SARAL
1 39086U 13009A   25340.93122796  .00000256  00000-0  10999-3 0  9996
2 39086  98.5506 164.9374 0002733 119.6027 240.5429 14.32753952668070
LAPAN-A3
1 41603U 16040E   25340.94513436  .00006176  00000-0  20527-3 0  9993
2 41603  97.1423 338.7123 0010374 355.6302   4.4848 15.31482063525371
BIROS
1 41604U 16040F   25340.80560628  .00209332  00000-0  78769-3 0  9994
2 41604  97.0681  12.0117 0003058 161.6931 198.4452 15.87267806527785
METOP-A
1 29499U 06044A   25340.88573288  .00003267  00000-0  38589-3 0  9994
2 29499  98.3305  76.7957 0175714 322.5665 147.2655 14.74991604997097
METEOR M1
1 35865U 09049A   25340.85503149  .00000246  00000-0  12851-3 0  9990
2 35865  98.7123 300.0089 0002906 127.9491 232.1950 14.23093282841895
METOP-B
1 38771U 12049A   25340.88001168  .00000287  00000-0  15147-3 0  9996
2 38771  98.6807  30.9379 0002661 157.1156 203.0140 14.21405061685944
METEOR M2
1 40069U 14037A   25340.90563599  .00000276  00000-0  14579-3 0  9998
2 40069  98.4896 318.7140 0004815 228.7202 131.3562 14.21382993592009
CSSWE
1 38761U 12048D   25340.88918867  .00039405  00000-0  10781-2 0  9999
2 38761  64.6639  19.6087 0089561 228.8138 130.5247 15.33120849 86803
MCUBED-2
1 39469U 13072H   25340.96969836  .00016527  00000-0  70654-3 0  9990
2 39469 120.4955 332.9689 0161151 163.0432 197.6103 15.12131018 88694
IPEX
1 39471U 13072K   25340.88543795  .00011883  00000-0  61065-3 0  9992
2 39471 120.4690 289.9650 0180461 151.4114 209.6983 15.04065679 86266
FOX-1A (AO-85)
1 40967U 15058D   25340.90063314  .00006715  00000-0  60450-3 0  9992
2 40967  64.7739 155.9557 0135619 132.2591 229.0119 14.89577570 84918
OOREOS
1 37224U 10062C   25340.92995787  .00004602  00000-0  45166-3 0  9994
2 37224  71.9691 155.4981 0012882  70.2149 290.0409 14.92623385 87945
STARS (KUKAI)
1 33498U 09002G   25340.78025466  .00009531  00000-0  90239-3 0  9994
2 33498  98.1376 275.7362 0010558  84.6627 275.5796 14.93813225909734
YUBELEINY-2 (RS-40)
1 38735U 12041C   25340.84975779  .00000041  00000-0  22453-3 0  9998
2 38735  82.4761 194.6102 0017769 125.5439 234.7301 12.42640166605955
AIST-1
1 39492U 13078C   25340.89442781  .00003659  00000-0  32907-3 0  9990
2 39492  82.4163  97.0688 0016683 198.0741 161.9889 14.95307788646500
VELOX-1
1 40057U 14034E   25340.93279728  .00009576  00000-0  86963-3 0  9991
2 40057  98.2703 230.1672 0007167 173.6049 186.5263 14.95483799617845
DX1
1 40071U 14037C   25340.91138522  .00003488  00000-0  37613-3 0  9998
2 40071  98.3635 286.3668 0007315 167.4390 192.7009 14.89103870617488
COSMOS-2491 (RS-46) [i]
1 39497U 13076E   25340.88427672  .00000018  00000-0  59613-4 0  9994
2 39497  82.4847 288.1690 0013332 145.8166 214.3775 12.43492920541357
COSMOS-2499 (RS-47) [i]
1 39765U 14028E   25340.80507718  .00000052  00000-0  14437-3 0  9994
2 39765  82.4508  22.2547 0232728  93.3305 269.4448 12.82898255540352
TRANSIT 5B-5
1 00965U 64083D   25340.93863726  .00000093  00000-0  11634-3 0  9999
2 00965  90.0680 201.5574 0043124 118.8323 307.8143 13.56989990 17541
EUTELSAT 1-F4 (ECS 4)
1 18351U 87078B   25340.34953590 -.00000235  00000-0  00000-0 0  9991
2 18351  13.9667 343.4719 0008078  16.1109 172.2915  0.98690582124858
BISONSAT
1 40968U 15058E   25340.82804490  .00010974  00000-0  89448-3 0  9992
2 40968  64.7744 140.4701 0124043 130.4756 230.7251 14.93970007 87902
DTUSAT-2
1 40030U 14033W   25340.91082523  .00013545  00000-0  80056-3 0  9992
2 40030  98.0751 322.0490 0008718 158.7760 201.3832 15.11586863623607
ELEKTRO-L2
1 41105U 15074A   25340.06713876 -.00000112  00000-0  00000-0 0  9995
2 41105   6.2080  72.9071 0003935 200.4894 171.3714  1.00271999 36575
DOVE-3
1 39429U 13066P   25340.58468926  .00008233  00000-0  11090-2 0  9994
2 39429  97.6833 205.1409 0115309 289.5846  69.2944 14.74858772642602
FORTE
1 24920U 97047A   25340.73300911  .00000577  00000-0  25598-3 0  9993
2 24920  69.9537  88.6859 0022272 189.0281 171.0444 14.27833172471210
DMSP 5D-2 F15/USA-147
1 25991U 99067A   25340.95092679  .00000316  00000-0  17826-3 0  9995
2 25991  99.0218  11.8722 0009874 184.3166 240.4616 14.17472175343412
CASSIOPE-1
1 39265U 13055A   25340.94317460  .00064208  13264-6  86051-3 0  9992
2 39265  80.9255 297.7947 0344471 344.4490  14.6348 15.10775920638495
D-STAR ONE PHOENIX
1 43188U 18014J   25340.67447082  .00011385  00000-0  62547-3 0  9995
2 43188  97.5506 241.9668 0008409 332.0179  28.0600 15.14245074429600
S-NET D
1 43186U 18014G   25340.67473722  .00011457  00000-0  62954-3 0  9995
2 43186  97.5491 241.8118 0007991 337.1029  22.9845 15.14238856429609
TEN-KOH
1 43677U 18084G   25340.84834060  .00005554  00000-0  43108-3 0  9993
2 43677  98.0734 160.2298 0009408  39.7382 320.4529 15.01759206387280
